{"type":"Feature","properties":{"name":"Rhein","source":"OpenStreetMap"},"geometry":{"type":"LineString","coordinates":[[8.85507,46.69621],[8.85592,46.69774],[8.86235,46.69915],[8.86332,46.702],[8.86512,46.70376],[8.86856,46.70483],[8.86963,46.70665],[8.87203,46.70725],[8.87408,46.70885],[8.87727,46.70916],[8.88138,46.71295],[8.88619,46.71341],[8.89601,46.717],[8.89987,46.72016],[8.91259,46.72229],[8.92607,46.7202],[8.92901,46.72197],[8.93069,46.7219],[8.9358,46.72336],[8.94422,46.72379],[8.94854,46.7246],[8.95233,46.72555],[8.95586,46.72756],[8.96078,46.72914],[8.96372,46.72868],[8.96571,46.72923],[8.96937,46.73319],[8.9763,46.73635],[8.98266,46.73668],[8.98574,46.73802],[8.99297,46.739],[8.99975,46.74132],[9.00193,46.7446],[9.00535,46.74465],[9.00863,46.74552],[9.01354,46.7449],[9.03093,46.74657],[9.03772,46.74962],[9.04265,46.75022],[9.0479,46.75209],[9.05837,46.75338],[9.06272,46.75688],[9.06554,46.75678],[9.07047,46.755],[9.08097,46.75725],[9.08619,46.75728],[9.08954,46.75888],[9.09558,46.76049],[9.10291,46.765],[9.10784,46.76583],[9.11801,46.77096],[9.13116,46.77448],[9.13811,46.77325],[9.14783,46.77417],[9.15668,46.7763],[9.15967,46.77538],[9.16718,46.77562],[9.17803,46.77118],[9.1848,46.7703],[9.19459,46.77348],[9.20739,46.77639],[9.21819,46.7778],[9.22409,46.77785],[9.23277,46.78021],[9.23638,46.78186],[9.23861,46.78548],[9.24096,46.78593],[9.24577,46.78485],[9.24838,46.78325],[9.25458,46.78259],[9.25844,46.78317],[9.2597,46.78373],[9.26036,46.78525],[9.26366,46.78805],[9.26725,46.78891],[9.26931,46.79016],[9.27586,46.79242],[9.28141,46.79693],[9.2837,46.797],[9.28692,46.79591],[9.28861,46.79653],[9.29044,46.79643],[9.29616,46.7943],[9.2983,46.79435],[9.30112,46.79823],[9.29964,46.80293],[9.30076,46.80563],[9.30347,46.80713],[9.30655,46.80672],[9.31004,46.80898],[9.31532,46.80804],[9.31583,46.80751],[9.31527,46.80625],[9.3171,46.80585],[9.32103,46.80635],[9.31973,46.8088],[9.32201,46.80917],[9.32314,46.80841],[9.32543,46.80433],[9.32701,46.8038],[9.32915,46.80409],[9.33307,46.80685],[9.34117,46.80714],[9.34349,46.8102],[9.35248,46.81648],[9.35504,46.81702],[9.35899,46.81568],[9.36141,46.81607],[9.36355,46.81885],[9.37038,46.82293],[9.37562,46.8239],[9.37665,46.82191],[9.37806,46.82134],[9.3799,46.82268],[9.39249,46.82279],[9.40367,46.82554],[9.4071,46.82514],[9.40781,46.82345],[9.40896,46.82353],[9.41367,46.82545],[9.41664,46.82996],[9.4265,46.83304],[9.43329,46.83383],[9.4353,46.83531],[9.43639,46.8374],[9.43954,46.8391],[9.44847,46.83822],[9.45807,46.83816],[9.47189,46.84275],[9.48384,46.8446],[9.48833,46.84702],[9.49781,46.85727],[9.50108,46.85976],[9.50894,46.86403],[9.52751,46.87161],[9.53034,46.87357],[9.53125,46.87522],[9.53221,46.88175],[9.53909,46.89182],[9.53926,46.89519],[9.53835,46.89683],[9.54274,46.90496],[9.54737,46.90982],[9.55434,46.91306],[9.55839,46.92746],[9.55833,46.93125],[9.55751,46.93253],[9.54928,46.93754],[9.54577,46.94144],[9.54288,46.94624],[9.54437,46.95085],[9.54419,46.95697],[9.54723,46.95903],[9.55018,46.97079],[9.5488,46.97358],[9.52158,46.99762],[9.51156,47.00805],[9.50996,47.01017],[9.50798,47.0167],[9.47769,47.04846],[9.47178,47.06152],[9.47166,47.06423],[9.47509,47.06697],[9.49132,47.07326],[9.49809,47.07736],[9.50005,47.07772],[9.50406,47.07995],[9.50426,47.08076],[9.50781,47.08275],[9.50963,47.08299],[9.51221,47.08443],[9.51278,47.08553],[9.51616,47.08798],[9.51705,47.0921],[9.51978,47.09674],[9.51969,47.10127],[9.51851,47.10521],[9.51883,47.10749],[9.51637,47.11352],[9.51525,47.11788],[9.5156,47.11985],[9.51387,47.12238],[9.51314,47.12907],[9.5072,47.14238],[9.49973,47.14977],[9.49131,47.16297],[9.48594,47.18236],[9.48976,47.19649],[9.49963,47.21136],[9.50164,47.22018],[9.50464,47.22513],[9.52045,47.24396],[9.53011,47.26249],[9.53104,47.27113],[9.53296,47.273],[9.54628,47.28016],[9.55133,47.2868],[9.55449,47.29562],[9.55625,47.29819],[9.56556,47.30411],[9.58144,47.31106],[9.58805,47.3173],[9.60009,47.34616],[9.60528,47.35148],[9.63484,47.37483],[9.64225,47.38353],[9.64708,47.39163],[9.65105,47.40232],[9.6519,47.40836],[9.65009,47.42185],[9.64507,47.43205],[9.64436,47.43585],[9.64735,47.44033],[9.66448,47.45273],[9.66801,47.45796],[9.66885,47.46152],[9.67088,47.49942],[9.6695,47.50371],[9.6657,47.50827],[9.66322,47.5101],[9.6554,47.51347],[9.64845,47.51854],[9.64477,47.52537],[9.45,47.55],[9.32,47.59],[9.24,47.635],[9.17887,47.66624],[9.1718,47.66912],[9.16785,47.66999],[9.1613,47.67015],[9.15752,47.66886],[9.15499,47.66636],[9.14988,47.66741],[9.14104,47.66418],[9.13869,47.66408],[9.13316,47.6657],[9.06,47.681],[8.98,47.7],[8.91,47.686],[8.85898,47.65816],[8.85168,47.66206],[8.84238,47.66415],[8.8392,47.6679],[8.83885,47.66983],[8.83479,47.67276],[8.83076,47.6746],[8.82581,47.67515],[8.81708,47.67779],[8.81424,47.67778],[8.80885,47.67661],[8.80338,47.67848],[8.79544,47.67525],[8.79315,47.67484],[8.79023,47.67525],[8.78678,47.676],[8.77443,47.68075],[8.76635,47.68626],[8.75769,47.68949],[8.75304,47.69052],[8.74084,47.69131],[8.73557,47.6928],[8.72914,47.6929],[8.72165,47.69217],[8.71444,47.68961],[8.70695,47.68952],[8.69812,47.69328],[8.68967,47.69556],[8.68356,47.69045],[8.67712,47.68683],[8.67025,47.68489],[8.66149,47.68615],[8.65774,47.68761],[8.64688,47.6937],[8.64374,47.69471],[8.6409,47.69487],[8.63609,47.69324],[8.62546,47.692],[8.62396,47.69023],[8.62591,47.68348],[8.62742,47.68095],[8.62658,47.67803],[8.62384,47.67622],[8.62082,47.67528],[8.61812,47.67551],[8.61507,47.67772],[8.61164,47.67682],[8.6104,47.67551],[8.60876,47.66729],[8.6107,47.66381],[8.61977,47.65922],[8.62831,47.65306],[8.62831,47.64883],[8.62356,47.64136],[8.61899,47.63869],[8.61483,47.63766],[8.60691,47.63702],[8.60473,47.6377],[8.60351,47.63885],[8.60349,47.64102],[8.60414,47.64146],[8.61082,47.64197],[8.61376,47.64413],[8.61315,47.64885],[8.61183,47.65039],[8.60788,47.6524],[8.60473,47.65189],[8.60153,47.64611],[8.59612,47.64346],[8.59551,47.64078],[8.59778,47.62802],[8.5998,47.62357],[8.6049,47.61687],[8.60476,47.61269],[8.6025,47.61013],[8.59675,47.60659],[8.59544,47.60509],[8.59435,47.60116],[8.59514,47.59774],[8.59415,47.59627],[8.58284,47.59304],[8.57885,47.59033],[8.5771,47.58718],[8.5771,47.58525],[8.58002,47.57693],[8.5792,47.57624],[8.57447,47.57562],[8.57215,47.57452],[8.56977,47.57016],[8.56938,47.56667],[8.56735,47.56218],[8.55941,47.55342],[8.55628,47.55215],[8.55494,47.5525],[8.55082,47.55639],[8.55005,47.56117],[8.54767,47.56527],[8.54416,47.56842],[8.54008,47.57079],[8.53457,47.57276],[8.51622,47.57623],[8.49799,47.58119],[8.49203,47.58037],[8.48537,47.5772],[8.47728,47.57801],[8.46962,47.57415],[8.46411,47.57216],[8.45617,47.57244],[8.43843,47.56725],[8.43356,47.56661],[8.42743,47.56725],[8.41342,47.57157],[8.40641,47.57493],[8.39791,47.57717],[8.3954,47.57685],[8.39003,47.57349],[8.3854,47.56711],[8.38272,47.56572],[8.37353,47.56805],[8.36479,47.56882],[8.35858,47.57015],[8.34756,47.57081],[8.33817,47.57031],[8.32939,47.57101],[8.32498,47.57236],[8.3222,47.57389],[8.31246,47.58225],[8.3096,47.58389],[8.30076,47.58681],[8.2975,47.58926],[8.29524,47.59368],[8.29779,47.60438],[8.29719,47.60607],[8.29189,47.60913],[8.28769,47.61052],[8.2791,47.61165],[8.27397,47.61115],[8.26768,47.60922],[8.2654,47.60931],[8.26332,47.60989],[8.26047,47.61469],[8.25691,47.61531],[8.24539,47.61262],[8.23793,47.61263],[8.23155,47.60712],[8.22915,47.60569],[8.22686,47.60519],[8.22377,47.60635],[8.22173,47.61441],[8.21898,47.61805],[8.21163,47.62064],[8.20779,47.62115],[8.20394,47.621],[8.19718,47.61866],[8.19306,47.61573],[8.18524,47.60559],[8.18287,47.6043],[8.1779,47.60316],[8.17464,47.60177],[8.1644,47.59409],[8.16005,47.59358],[8.15284,47.59584],[8.14931,47.5959],[8.14682,47.59509],[8.13856,47.59048],[8.13755,47.58869],[8.13811,47.58565],[8.13627,47.58387],[8.1338,47.58337],[8.12464,47.58336],[8.11717,47.58399],[8.11016,47.58283],[8.1051,47.57907],[8.1028,47.57595],[8.10138,47.56658],[8.09915,47.56258],[8.09573,47.56025],[8.08971,47.55781],[8.08506,47.55755],[8.08097,47.55822],[8.07085,47.56393],[8.06721,47.56452],[8.06305,47.56327],[8.05916,47.56348],[8.05717,47.56124],[8.04621,47.55531],[8.0398,47.55342],[8.02627,47.5517],[8.02316,47.5506],[8.02038,47.55043],[8.01498,47.5511],[8.00751,47.55486],[8.00064,47.55639],[7.97672,47.55521],[7.9697,47.55594],[7.96028,47.55806],[7.95333,47.5555],[7.95211,47.55386],[7.9512,47.54847],[7.94792,47.54476],[7.94616,47.54388],[7.94426,47.54379],[7.93254,47.54694],[7.92246,47.54668],[7.91804,47.54719],[7.91498,47.54834],[7.91199,47.55035],[7.90773,47.55593],[7.90671,47.5599],[7.90722,47.56197],[7.91105,47.56658],[7.91122,47.56859],[7.91012,47.57158],[7.90568,47.57773],[7.90162,47.58139],[7.89128,47.58751],[7.88472,47.58848],[7.86596,47.58854],[7.85778,47.5867],[7.84892,47.58308],[7.8438,47.5821],[7.84048,47.58216],[7.83723,47.58304],[7.83354,47.586],[7.83183,47.58665],[7.82247,47.58796],[7.81909,47.58721],[7.81707,47.58501],[7.81388,47.57859],[7.81152,47.5707],[7.80744,47.56661],[7.80306,47.56491],[7.79914,47.56255],[7.79616,47.55783],[7.79448,47.55697],[7.7849,47.55379],[7.77283,47.55223],[7.7577,47.54822],[7.75416,47.54539],[7.75025,47.54434],[7.71808,47.54167],[7.69734,47.53292],[7.695,47.5325],[7.67927,47.5328],[7.66804,47.53574],[7.66384,47.5398],[7.66136,47.54485],[7.65892,47.54575],[7.65235,47.5466],[7.64923,47.54816],[7.63966,47.55804],[7.63407,47.55912],[7.61723,47.55883],[7.60758,47.55658],[7.59909,47.55599],[7.59406,47.55714],[7.59116,47.55887],[7.58528,47.5652],[7.58439,47.57858],[7.58572,47.58409],[7.59278,47.59688],[7.59304,47.60075],[7.59211,47.60332],[7.58703,47.60854],[7.57625,47.6144],[7.57125,47.61643],[7.56557,47.62023],[7.53506,47.64448],[7.51757,47.66069],[7.51523,47.66396],[7.51366,47.66797],[7.51339,47.68371],[7.50937,47.6924],[7.50864,47.69558],[7.50949,47.70194],[7.51181,47.70557],[7.53675,47.72443],[7.54031,47.73043],[7.54083,47.73391],[7.53944,47.7401],[7.5339,47.74892],[7.52816,47.76129],[7.52533,47.77343],[7.52526,47.78393],[7.52862,47.79257],[7.54146,47.81191],[7.54599,47.82354],[7.55534,47.84146],[7.55574,47.84869],[7.5512,47.87057],[7.55198,47.87757],[7.56302,47.89522],[7.57788,47.93224],[7.58026,47.93602],[7.6055,47.95864],[7.60965,47.96464],[7.6126,47.97281],[7.61297,47.97777],[7.61127,47.98607],[7.60879,47.99104],[7.60544,47.99536],[7.58547,48.01388],[7.56905,48.0272],[7.56747,48.02937],[7.5682,48.03573],[7.57354,48.05028],[7.57384,48.05562],[7.56958,48.07765],[7.56958,48.08086],[7.57205,48.08903],[7.57712,48.09589],[7.57895,48.10046],[7.5797,48.11002],[7.57776,48.11537],[7.57831,48.12234],[7.58321,48.12654],[7.59329,48.13055],[7.59827,48.13416],[7.59997,48.13695],[7.60117,48.14183],[7.59918,48.15339],[7.60134,48.15844],[7.60787,48.16487],[7.61671,48.17159],[7.62984,48.1834],[7.64297,48.20539],[7.64563,48.20834],[7.64989,48.21243],[7.65697,48.21731],[7.66604,48.2218],[7.66846,48.22436],[7.68769,48.27431],[7.69095,48.29772],[7.69368,48.30174],[7.69896,48.30625],[7.70528,48.31],[7.73349,48.31754],[7.73976,48.32117],[7.74492,48.32762],[7.74588,48.3304],[7.74577,48.33311],[7.73829,48.35556],[7.73679,48.35812],[7.72897,48.36415],[7.7233,48.37284],[7.72137,48.38154],[7.72253,48.38898],[7.72454,48.39586],[7.72854,48.40356],[7.72955,48.40705],[7.73523,48.41208],[7.74373,48.41781],[7.76318,48.45118],[7.76586,48.45894],[7.76685,48.46514],[7.76707,48.48596],[7.76894,48.49066],[7.77605,48.49647],[7.78151,48.49904],[7.79693,48.5032],[7.80036,48.50644],[7.80473,48.51259],[7.80634,48.51761],[7.80665,48.52328],[7.80325,48.53414],[7.80295,48.53812],[7.80536,48.54747],[7.80586,48.5548],[7.80454,48.56547],[7.8002,48.58041],[7.80077,48.58523],[7.80257,48.58947],[7.80499,48.5928],[7.83002,48.6194],[7.83303,48.62488],[7.83791,48.63847],[7.84174,48.64354],[7.84665,48.64647],[7.86262,48.651],[7.88341,48.65935],[7.89034,48.66286],[7.90826,48.67701],[7.92007,48.683],[7.92761,48.69262],[7.96575,48.72415],[7.96769,48.72941],[7.96705,48.74609],[7.96882,48.75366],[7.97237,48.75817],[7.97564,48.75971],[7.98308,48.76118],[8.00046,48.75885],[8.00763,48.75918],[8.01267,48.76031],[8.0194,48.76428],[8.02252,48.76787],[8.02422,48.77206],[8.02626,48.78336],[8.0304,48.78725],[8.03631,48.78973],[8.04147,48.79069],[8.04715,48.79078],[8.05926,48.78895],[8.06788,48.79051],[8.07298,48.7927],[8.07936,48.79651],[8.09303,48.8071],[8.10194,48.81641],[8.10404,48.82098],[8.10399,48.83264],[8.10505,48.83613],[8.11119,48.843],[8.11845,48.85932],[8.12525,48.87146],[8.12744,48.87744],[8.1359,48.88731],[8.14209,48.898],[8.15289,48.90863],[8.15542,48.91279],[8.16858,48.92337],[8.18516,48.94102],[8.18784,48.94486],[8.19157,48.95291],[8.19537,48.95687],[8.19937,48.95912],[8.20414,48.96064],[8.22049,48.96334],[8.23515,48.96687],[8.27336,48.98735],[8.28086,48.99163],[8.28414,48.99428],[8.29752,49.01195],[8.30049,49.02001],[8.30243,49.03707],[8.30569,49.04512],[8.30928,49.05097],[8.3231,49.06791],[8.32803,49.07199],[8.34101,49.07984],[8.34855,49.08768],[8.35628,49.09424],[8.36052,49.10103],[8.36539,49.12338],[8.36868,49.1318],[8.36973,49.14166],[8.37333,49.15239],[8.37162,49.15709],[8.36742,49.1627],[8.36715,49.16679],[8.3693,49.17105],[8.379,49.18198],[8.38218,49.1875],[8.38349,49.19509],[8.3876,49.20874],[8.38739,49.2121],[8.38501,49.21953],[8.38481,49.22494],[8.38592,49.22886],[8.38883,49.23432],[8.3956,49.24051],[8.40868,49.24847],[8.43181,49.25731],[8.43667,49.26012],[8.44452,49.26588],[8.4538,49.2757],[8.46058,49.28088],[8.46944,49.28424],[8.48388,49.28687],[8.4864,49.28827],[8.48926,49.29137],[8.48993,49.2951],[8.48936,49.29845],[8.48617,49.30377],[8.48164,49.30698],[8.47531,49.30975],[8.46836,49.31144],[8.46037,49.31244],[8.4552,49.31402],[8.45114,49.31779],[8.44967,49.32388],[8.45136,49.32865],[8.45657,49.33359],[8.46431,49.33818],[8.47646,49.34337],[8.48528,49.34956],[8.49701,49.36359],[8.49984,49.3698],[8.50149,49.38733],[8.49597,49.40161],[8.49544,49.40601],[8.49683,49.4117],[8.50025,49.41906],[8.50863,49.43106],[8.50884,49.43509],[8.50786,49.43735],[8.50467,49.44069],[8.49904,49.44311],[8.48705,49.44432],[8.46881,49.44283],[8.45704,49.44304],[8.45078,49.44438],[8.44615,49.44641],[8.44254,49.44971],[8.44144,49.45472],[8.44471,49.45951],[8.45038,49.46212],[8.45963,49.46441],[8.463,49.46684],[8.46418,49.46991],[8.46387,49.47153],[8.45956,49.47806],[8.44646,49.48874],[8.44213,49.4938],[8.44003,49.50127],[8.4224,49.54329],[8.41399,49.55447],[8.41347,49.55914],[8.41461,49.56447],[8.41725,49.56831],[8.42242,49.57317],[8.42481,49.58008],[8.42457,49.58156],[8.4138,49.59494],[8.40997,49.60308],[8.40609,49.60818],[8.38968,49.61762],[8.38299,49.62432],[8.37603,49.63929],[8.37004,49.65889],[8.36019,49.66926],[8.3563,49.67505],[8.35462,49.67984],[8.356,49.69219],[8.36012,49.69758],[8.37146,49.70314],[8.39442,49.71097],[8.42615,49.71629],[8.43521,49.72009],[8.44108,49.7239],[8.44443,49.72704],[8.45606,49.7435],[8.4611,49.74728],[8.47818,49.75727],[8.48027,49.75939],[8.48074,49.76266],[8.48012,49.76447],[8.47684,49.76763],[8.47228,49.76914],[8.46829,49.76945],[8.46226,49.76901],[8.45434,49.76765],[8.44868,49.76584],[8.44238,49.76539],[8.43496,49.76547],[8.42763,49.76649],[8.42229,49.76827],[8.41679,49.77258],[8.41422,49.77562],[8.41076,49.79003],[8.4052,49.79832],[8.39782,49.806],[8.38031,49.82124],[8.37729,49.82545],[8.37678,49.83008],[8.37961,49.83785],[8.38565,49.84784],[8.38583,49.85277],[8.38469,49.85529],[8.38011,49.85951],[8.37492,49.86195],[8.35497,49.86477],[8.35034,49.86855],[8.34563,49.87412],[8.34131,49.8824],[8.34156,49.8881],[8.34259,49.89144],[8.35334,49.90684],[8.35486,49.91041],[8.35535,49.9145],[8.35365,49.92086],[8.34226,49.93978],[8.34051,49.95405],[8.3329,49.96461],[8.32177,49.97399],[8.30787,49.98418],[8.289,49.99449],[8.27331,50.00956],[8.25317,50.02247],[8.24165,50.03183],[8.23668,50.03443],[8.23078,50.03608],[8.21855,50.03769],[8.2121,50.03796],[8.20415,50.03804],[8.17852,50.03503],[8.14528,50.02625],[8.11791,50.02149],[8.09506,50.01139],[8.07804,50.00676],[8.071,50.00584],[8.03916,50.00367],[8.03561,50.00277],[8.02609,49.99876],[8.01496,49.99263],[8.01019,49.99102],[7.99091,49.98628],[7.97152,49.9795],[7.9565,49.97647],[7.9384,49.97192],[7.93172,49.97166],[7.91499,49.97295],[7.90314,49.97239],[7.88848,49.97277],[7.88117,49.9735],[7.87657,49.97464],[7.87112,49.97722],[7.86655,49.98079],[7.86409,49.9843],[7.85842,49.9993],[7.85811,50.00664],[7.85556,50.01036],[7.85061,50.01386],[7.83288,50.02045],[7.82245,50.0264],[7.81233,50.03262],[7.80319,50.03939],[7.78889,50.04684],[7.78399,50.05002],[7.77404,50.05788],[7.77369,50.06197],[7.77508,50.07018],[7.77083,50.07729],[7.76418,50.08224],[7.75985,50.08672],[7.74325,50.10068],[7.72401,50.11223],[7.72269,50.11364],[7.72243,50.11667],[7.72337,50.11806],[7.7376,50.12609],[7.73899,50.12731],[7.73941,50.12917],[7.73925,50.13104],[7.73672,50.13525],[7.7344,50.13629],[7.72739,50.13778],[7.72652,50.13855],[7.72439,50.14188],[7.72492,50.14748],[7.72325,50.14955],[7.71009,50.15524],[7.70125,50.16499],[7.69655,50.16774],[7.68983,50.16985],[7.67586,50.17083],[7.6604,50.17341],[7.64982,50.17626],[7.64704,50.17768],[7.64435,50.18058],[7.64401,50.18256],[7.64677,50.18926],[7.64685,50.19279],[7.64511,50.19978],[7.64282,50.20315],[7.63508,50.20861],[7.62031,50.21598],[7.61564,50.22482],[7.61346,50.22769],[7.60986,50.23062],[7.60571,50.2326],[7.60186,50.23345],[7.58507,50.23439],[7.58018,50.23697],[7.57868,50.23901],[7.57921,50.24317],[7.58182,50.24548],[7.58708,50.24836],[7.59108,50.24956],[7.6006,50.25063],[7.61029,50.24966],[7.62773,50.24607],[7.63558,50.24588],[7.64176,50.24687],[7.64647,50.2486],[7.65034,50.25186],[7.65228,50.25552],[7.65243,50.25913],[7.64848,50.26718],[7.64464,50.27023],[7.62915,50.27848],[7.60834,50.29155],[7.59566,50.30447],[7.59149,50.31114],[7.58922,50.31728],[7.58922,50.32211],[7.59328,50.33281],[7.60081,50.34806],[7.6065,50.35584],[7.60869,50.36643],[7.61336,50.37582],[7.61267,50.38159],[7.60771,50.38854],[7.59793,50.39502],[7.58624,50.40006],[7.57948,50.40367],[7.56429,50.41457],[7.55693,50.41751],[7.54207,50.42146],[7.53257,50.42199],[7.52682,50.42104],[7.5222,50.41957],[7.51248,50.4148],[7.5075,50.41338],[7.49965,50.41217],[7.49225,50.41158],[7.4815,50.41174],[7.47527,50.41208],[7.46876,50.41335],[7.46244,50.41572],[7.45749,50.41911],[7.45436,50.42303],[7.44975,50.43148],[7.44012,50.44158],[7.43337,50.44387],[7.42785,50.44475],[7.40349,50.44311],[7.39563,50.44405],[7.39018,50.44577],[7.37852,50.45079],[7.37281,50.45381],[7.35824,50.46331],[7.35,50.46937],[7.34685,50.47371],[7.34229,50.4781],[7.32977,50.4892],[7.31496,50.5002],[7.30031,50.51422],[7.2843,50.54353],[7.27915,50.56035],[7.27484,50.56625],[7.26745,50.57315],[7.26395,50.57543],[7.25577,50.57801],[7.23269,50.58071],[7.223,50.58253],[7.21623,50.58657],[7.21253,50.58975],[7.21003,50.59457],[7.21058,50.59759],[7.21422,50.60308],[7.21198,50.63],[7.21149,50.64749],[7.20977,50.65167],[7.20247,50.65854],[7.17634,50.68679],[7.16831,50.70393],[7.16483,50.70781],[7.16042,50.71157],[7.15298,50.71522],[7.14273,50.71806],[7.12568,50.72154],[7.11886,50.72446],[7.1147,50.72789],[7.11323,50.73],[7.10687,50.74751],[7.10457,50.7517],[7.1011,50.75562],[7.09723,50.75772],[7.08933,50.76053],[7.07829,50.76618],[7.05275,50.77606],[7.03581,50.78541],[7.03314,50.78775],[7.02959,50.79569],[7.02955,50.80907],[7.02785,50.81437],[7.02564,50.81747],[7.02026,50.82161],[7.00908,50.82455],[6.99789,50.82486],[6.98891,50.82634],[6.98372,50.82883],[6.98147,50.83082],[6.97925,50.83501],[6.97931,50.83961],[6.98105,50.84281],[6.98337,50.84463],[6.98758,50.84712],[7.002,50.85157],[7.0071,50.85398],[7.02337,50.86693],[7.02873,50.86964],[7.04719,50.87627],[7.05092,50.87884],[7.05191,50.88098],[7.05187,50.8851],[7.04719,50.89051],[7.03978,50.89396],[7.03685,50.89464],[7.01333,50.89409],[7.00303,50.89514],[6.99463,50.89752],[6.99018,50.89939],[6.98366,50.90343],[6.975,50.91414],[6.96887,50.92672],[6.96572,50.93595],[6.96652,50.946],[6.96894,50.94999],[6.97335,50.95382],[6.97969,50.95686],[6.98934,50.96003],[6.99541,50.96329],[6.99912,50.97003],[6.99916,50.97171],[6.99802,50.97514],[6.99589,50.97808],[6.99363,50.97947],[6.98968,50.98146],[6.97183,50.98714],[6.96734,50.98985],[6.96385,50.9933],[6.96223,50.99819],[6.9626,51.00216],[6.96393,51.00515],[6.97231,51.01481],[6.97414,51.01832],[6.97432,51.02216],[6.97247,51.02575],[6.96857,51.02948],[6.96048,51.03397],[6.89832,51.06471],[6.88625,51.06884],[6.86337,51.07291],[6.85894,51.07442],[6.85488,51.07756],[6.85274,51.08313],[6.85526,51.08761],[6.86195,51.09147],[6.87161,51.09471],[6.87895,51.09799],[6.88198,51.1005],[6.88386,51.105],[6.88285,51.10948],[6.87944,51.11362],[6.87044,51.11928],[6.85781,51.1251],[6.85138,51.13008],[6.84948,51.13319],[6.84825,51.13808],[6.8494,51.1429],[6.85074,51.14576],[6.85748,51.15451],[6.85729,51.15705],[6.85455,51.16018],[6.85182,51.16152],[6.84652,51.16268],[6.84134,51.16249],[6.83861,51.16184],[6.83547,51.1606],[6.8295,51.15663],[6.8208,51.14723],[6.81784,51.14511],[6.81181,51.1431],[6.8056,51.14279],[6.80185,51.14332],[6.79573,51.14629],[6.7928,51.15034],[6.79292,51.15673],[6.79726,51.16496],[6.79823,51.16975],[6.7978,51.17454],[6.79657,51.17751],[6.7928,51.18154],[6.78604,51.18483],[6.77969,51.18589],[6.77509,51.18554],[6.75658,51.18143],[6.74635,51.18115],[6.73859,51.18286],[6.73308,51.18617],[6.73037,51.1912],[6.73173,51.19869],[6.73161,51.20681],[6.73036,51.21005],[6.72226,51.22142],[6.72395,51.22577],[6.72915,51.22828],[6.73258,51.22883],[6.73619,51.2286],[6.74328,51.22635],[6.75414,51.22063],[6.76118,51.22016],[6.76482,51.22146],[6.76725,51.22411],[6.76945,51.23163],[6.76665,51.24016],[6.76305,51.24427],[6.75942,51.24708],[6.7505,51.25119],[6.72415,51.25702],[6.71633,51.25943],[6.70693,51.26427],[6.70236,51.26956],[6.70213,51.2743],[6.70414,51.27845],[6.72594,51.29679],[6.73294,51.30461],[6.73543,51.31372],[6.73479,51.3189],[6.73265,51.32253],[6.72905,51.32586],[6.7174,51.33249],[6.70671,51.33685],[6.69657,51.33998],[6.66074,51.34858],[6.65561,51.35229],[6.65369,51.35583],[6.65374,51.359],[6.65577,51.36253],[6.65809,51.36451],[6.66506,51.36743],[6.67858,51.37086],[6.705,51.37326],[6.71133,51.37441],[6.72104,51.37782],[6.73,51.3827],[6.73859,51.38914],[6.74426,51.39578],[6.74554,51.40005],[6.7446,51.40784],[6.74145,51.41314],[6.72981,51.42257],[6.71606,51.43104],[6.71193,51.43697],[6.71195,51.44297],[6.71422,51.44652],[6.72132,51.45252],[6.72314,51.45508],[6.72377,51.45988],[6.72202,51.46383],[6.7183,51.46731],[6.71248,51.46983],[6.70799,51.4707],[6.69627,51.47151],[6.68827,51.47288],[6.68474,51.47432],[6.68201,51.47636],[6.68007,51.47985],[6.68053,51.48329],[6.68382,51.48725],[6.68886,51.48995],[6.69571,51.49242],[6.71327,51.4955],[6.71892,51.49767],[6.72172,51.49981],[6.72477,51.50586],[6.72286,51.51165],[6.72069,51.51412],[6.71427,51.51874],[6.70641,51.52247],[6.68916,51.52769],[6.68171,51.53169],[6.67669,51.53659],[6.6758,51.53998],[6.67679,51.54489],[6.67844,51.54889],[6.68468,51.55705],[6.68735,51.56357],[6.68571,51.57033],[6.68147,51.57389],[6.67825,51.57526],[6.66816,51.5776],[6.66289,51.57803],[6.65368,51.57773],[6.64892,51.57685],[6.64044,51.57406],[6.62873,51.56886],[6.62005,51.5667],[6.6125,51.56658],[6.6092,51.56719],[6.60285,51.56981],[6.60041,51.57164],[6.59794,51.57518],[6.5986,51.59307],[6.5977,51.59714],[6.59433,51.60597],[6.58722,51.61765],[6.58661,51.62054],[6.58771,51.62538],[6.58968,51.62782],[6.60101,51.63501],[6.6041,51.63906],[6.60495,51.64375],[6.60379,51.64812],[6.59978,51.65332],[6.59521,51.65606],[6.58988,51.65825],[6.58356,51.65954],[6.57088,51.65988],[6.55669,51.65831],[6.54607,51.6581],[6.52866,51.66154],[6.52213,51.66215],[6.50917,51.66164],[6.49629,51.66186],[6.48763,51.66342],[6.48329,51.66512],[6.47901,51.66799],[6.47639,51.67093],[6.47342,51.67706],[6.46886,51.69231],[6.46436,51.69895],[6.4604,51.70241],[6.45552,51.70511],[6.44948,51.7071],[6.41763,51.71157],[6.41154,51.71457],[6.40932,51.71681],[6.4076,51.71993],[6.40794,51.7241],[6.40964,51.72665],[6.42003,51.73602],[6.42234,51.73913],[6.42227,51.74482],[6.41989,51.7487],[6.41694,51.75124],[6.41014,51.75451],[6.40651,51.75522],[6.39683,51.75562],[6.38637,51.75512],[6.36409,51.75305],[6.35305,51.75432],[6.3477,51.75552],[6.34175,51.75768],[6.33679,51.76012],[6.33081,51.76474],[6.32433,51.77706],[6.3221,51.78646],[6.31917,51.79224],[6.30655,51.80367],[6.29984,51.80728],[6.28081,51.8136],[6.26319,51.82324],[6.25581,51.82581],[6.24921,51.82718],[6.23508,51.8288],[6.20324,51.82946],[6.19696,51.83005],[6.19115,51.8313],[6.16656,51.84072],[6.14183,51.84687],[6.12925,51.84829],[6.1056,51.84815],[6.09446,51.85022],[6.08802,51.85265],[6.08071,51.85708],[6.06463,51.86513],[6.05413,51.86885],[6.04417,51.87146],[6.0411,51.8715],[6.03624,51.87252],[6.02211,51.8797],[6.01521,51.88194],[6.00905,51.88216],[6.00252,51.88098],[5.99647,51.87756],[5.98871,51.87145],[5.98073,51.8593],[5.97586,51.85593],[5.96815,51.85379],[5.96248,51.85432],[5.95333,51.85834],[5.94503,51.86578],[5.93642,51.87175],[5.92883,51.87375],[5.91377,51.87397],[5.90226,51.87216],[5.89515,51.87021],[5.88583,51.86423],[5.87595,51.85342],[5.87101,51.85141],[5.86386,51.85148],[5.86013,51.85165],[5.8521,51.85331],[5.82565,51.86638],[5.8087,51.8732],[5.7972,51.8759],[5.7699,51.8792],[5.7499,51.8839],[5.73,51.8864],[5.7213,51.8885],[5.70708,51.89318],[5.7009,51.8945],[5.6907,51.8956],[5.666,51.8958],[5.631,51.8993],[5.6055,51.8991],[5.5907,51.8996],[5.5773,51.9015],[5.5681,51.9019],[5.547,51.8995],[5.52367,51.89242],[5.51117,51.89004],[5.49806,51.88897],[5.47617,51.88956],[5.46392,51.88894],[5.45444,51.88762],[5.44589,51.88459],[5.43534,51.87843],[5.42609,51.87005],[5.42022,51.86229],[5.41398,51.84975],[5.40807,51.84303],[5.38542,51.82816],[5.37165,51.81277],[5.36646,51.8084],[5.36022,51.80541],[5.35305,51.80408],[5.34776,51.80411],[5.34142,51.80552],[5.33692,51.80775],[5.32609,51.81699],[5.3198,51.82055],[5.3113,51.82319],[5.30463,51.82403],[5.29248,51.82368],[5.28223,51.82133],[5.26827,51.81902],[5.26004,51.81871],[5.24768,51.81725],[5.22062,51.8109],[5.21014,51.80991],[5.1999,51.81054],[5.18018,51.81546],[5.1723,51.8169],[5.15928,51.81646],[5.14251,51.81413],[5.12747,51.8154],[5.11684,51.81832],[5.09714,51.8254],[5.08737,51.82677],[5.08152,51.8267],[5.07414,51.82572],[5.05103,51.81842],[5.03879,51.81735],[5.01316,51.82055],[4.98776,51.82106],[4.94176,51.82793],[4.93115,51.82853],[4.92272,51.82808],[4.91298,51.82632],[4.89436,51.82058],[4.88682,51.81886],[4.87254,51.81765],[4.86734,51.81756],[4.84761,51.81901],[4.82422,51.81926],[4.79695,51.81718],[4.78623,51.81497],[4.77313,51.81512],[4.76736,51.81567],[4.75335,51.82095],[4.74529,51.82184],[4.74352,51.82277],[4.74033,51.82278],[4.7375,51.82209],[4.72363,51.82292],[4.70199,51.82318],[4.67976,51.82067],[4.67173,51.82154],[4.67101,51.82319],[4.66953,51.83081],[4.67281,51.837],[4.67084,51.84142],[4.65898,51.85104],[4.64869,51.86217],[4.6412,51.86703],[4.63481,51.87009],[4.62384,51.88449],[4.61747,51.89011],[4.60965,51.89105],[4.59509,51.8941],[4.58057,51.90247],[4.57124,51.90407],[4.553,51.90575],[4.54292,51.90398],[4.52908,51.90056],[4.52473,51.90038],[4.52107,51.90126],[4.51805,51.90361],[4.51609,51.91119],[4.51282,51.9146],[4.50484,51.91763],[4.50029,51.91815],[4.49744,51.91767],[4.49303,51.91573],[4.47858,51.90388],[4.4708,51.90118],[4.4612,51.89936],[4.4482,51.90004],[4.43516,51.90204],[4.4242,51.90221],[4.41583,51.90101],[4.39571,51.89687],[4.39117,51.89652],[4.36903,51.89941],[4.36127,51.89937],[4.35488,51.89873],[4.34065,51.89503],[4.33462,51.89427],[4.32374,51.89402],[4.30993,51.89511],[4.29155,51.89792],[4.27844,51.90138],[4.24191,51.91485],[4.23333,51.91916],[4.22424,51.92792],[4.21961,51.93074],[4.20872,51.93547],[4.18852,51.94298],[4.12578,51.97294],[4.11541,51.97651],[4.08813,51.98307]]}}